SENTINEL-2A             
1 40697U 15028A   26201.29162990 -.00000191  00000+0 -56250-4 0  9995
2 40697  98.5669 275.6716 0001304  97.2207 262.9124 14.30814761578461
SENTINEL-2B             
1 42063U 17013A   26201.28443814 -.00000229  00000+0 -70687-4 0  9998
2 42063  98.5677 275.5901 0001221  95.0756 265.0567 14.30815310489374
SENTINEL-2C             
1 60989U 24157A   26201.17955731  .00000041  00000+0  32384-4 0  9998
2 60989  98.5681 275.4927 0001028 106.0889 254.0407 14.30816557 97705
